{
  "type": "FeatureCollection",
  "features": [
    {
      "type": "Feature",
      "properties": {
        "norad_id": 66925,
        "name": "STARLINK-35945",
        "group": "last-30-days",
        "lat": 52.64445320970164,
        "lon": 110.48614972596187,
        "alt_km": 333.5931618995628,
        "timestamp": "2025-12-20T20:38:43.174400+00:00",
        "meta_object_name": "STARLINK-35945",
        "meta_object_id": "2025-286A",
        "meta_epoch": "2025-12-20T14:00:03.000384",
        "meta_mean_motion": 15.77031768,
        "meta_eccentricity": 6.898e-05,
        "meta_inclination": 53.1567,
        "meta_ra_of_asc_node": 11.0714,
        "meta_arg_of_pericenter": 60.1002,
        "meta_mean_anomaly": 264.1185,
        "meta_ephemeris_type": 0,
        "meta_classification_type": "U",
        "meta_norad_cat_id": 66925,
        "meta_element_set_no": 999,
        "meta_rev_at_epoch": 325,
        "meta_bstar": -0.009110238,
        "meta_mean_motion_dot": -0.01348744,
        "meta_mean_motion_ddot": 0,
        "tle_line1": "1 66925U 25286A   25354.58336806 -.01348744  00000+0 -91102-2 0  9996",
        "tle_line2": "2 66925  53.1567  11.0714 0000689  60.1002 264.1185 15.77031768  3255"
      },
      "geometry": {
        "type": "Point",
        "coordinates": [
          110.48614972596187,
          52.64445320970164
        ]
      }
    },
    {
      "type": "Feature",
      "properties": {
        "norad_id": 66926,
        "name": "STARLINK-35942",
        "group": "last-30-days",
        "lat": 51.832670786245885,
        "lon": 117.13327272016237,
        "alt_km": 333.9616887961147,
        "timestamp": "2025-12-20T20:38:43.174412+00:00",
        "meta_object_name": "STARLINK-35942",
        "meta_object_id": "2025-286B",
        "meta_epoch": "2025-12-20T14:00:03.000384",
        "meta_mean_motion": 15.76926394,
        "meta_eccentricity": 7.851e-05,
        "meta_inclination": 53.1566,
        "meta_ra_of_asc_node": 11.0621,
        "meta_arg_of_pericenter": 68.0649,
        "meta_mean_anomaly": 260.4131,
        "meta_ephemeris_type": 0,
        "meta_classification_type": "U",
        "meta_norad_cat_id": 66926,
        "meta_element_set_no": 999,
        "meta_rev_at_epoch": 325,
        "meta_bstar": -0.0092935569,
        "meta_mean_motion_dot": -0.01367194,
        "meta_mean_motion_ddot": 0,
        "tle_line1": "1 66926U 25286B   25354.58336806 -.01367194  00000+0 -92936-2 0  9993",
        "tle_line2": "2 66926  53.1566  11.0621 0000785  68.0649 260.4131 15.76926394  3250"
      },
      "geometry": {
        "type": "Point",
        "coordinates": [
          117.13327272016237,
          51.832670786245885
        ]
      }
    },
    {
      "type": "Feature",
      "properties": {
        "norad_id": 66927,
        "name": "STARLINK-35943",
        "group": "last-30-days",
        "lat": 51.31013594774557,
        "lon": 120.2447852859324,
        "alt_km": 334.0575852607617,
        "timestamp": "2025-12-20T20:38:43.174425+00:00",
        "meta_object_name": "STARLINK-35943",
        "meta_object_id": "2025-286C",
        "meta_epoch": "2025-12-20T14:00:03.000384",
        "meta_mean_motion": 15.76900244,
        "meta_eccentricity": 8.712e-05,
        "meta_inclination": 53.1567,
        "meta_ra_of_asc_node": 11.0584,
        "meta_arg_of_pericenter": 72.5457,
        "meta_mean_anomaly": 257.9629,
        "meta_ephemeris_type": 0,
        "meta_classification_type": "U",
        "meta_norad_cat_id": 66927,
        "meta_element_set_no": 999,
        "meta_rev_at_epoch": 325,
        "meta_bstar": -0.0093594094,
        "meta_mean_motion_dot": -0.01374427,
        "meta_mean_motion_ddot": 0,
        "tle_line1": "1 66927U 25286C   25354.58336806 -.01374427  00000+0 -93594-2 0  9992",
        "tle_line2": "2 66927  53.1567  11.0584 0000871  72.5457 257.9629 15.76900244  3252"
      },
      "geometry": {
        "type": "Point",
        "coordinates": [
          120.2447852859324,
          51.31013594774557
        ]
      }
    },
    {
      "type": "Feature",
      "properties": {
        "norad_id": 66928,
        "name": "STARLINK-35944",
        "group": "last-30-days",
        "lat": 52.27422396770534,
        "lon": 113.93048911619901,
        "alt_km": 333.8514487253833,
        "timestamp": "2025-12-20T20:38:43.174435+00:00",
        "meta_object_name": "STARLINK-35944",
        "meta_object_id": "2025-286D",
        "meta_epoch": "2025-12-20T14:00:03.000384",
        "meta_mean_motion": 15.76959301,
        "meta_eccentricity": 7.223e-05,
        "meta_inclination": 53.1566,
        "meta_ra_of_asc_node": 11.0664,
        "meta_arg_of_pericenter": 62.012,
        "meta_mean_anomaly": 264.4128,
        "meta_ephemeris_type": 0,
        "meta_classification_type": "U",
        "meta_norad_cat_id": 66928,
        "meta_element_set_no": 999,
        "meta_rev_at_epoch": 325,
        "meta_bstar": -0.0092221814,
        "meta_mean_motion_dot": -0.01359586,
        "meta_mean_motion_ddot": 0,
        "tle_line1": "1 66928U 25286D   25354.58336806 -.01359586  00000+0 -92222-2 0  9999",
        "tle_line2": "2 66928  53.1566  11.0664 0000722  62.0120 264.4128 15.76959301  3252"
      },
      "geometry": {
        "type": "Point",
        "coordinates": [
          113.93048911619901,
          52.27422396770534
        ]
      }
    },
    {
      "type": "Feature",
      "properties": {
        "norad_id": 66929,
        "name": "STARLINK-36169",
        "group": "last-30-days",
        "lat": 50.691790850581626,
        "lon": 123.34851766972075,
        "alt_km": 334.29133204160735,
        "timestamp": "2025-12-20T20:38:43.174445+00:00",
        "meta_object_name": "STARLINK-36169",
        "meta_object_id": "2025-286E",
        "meta_epoch": "2025-12-20T14:00:03.000384",
        "meta_mean_motion": 15.76853775,
        "meta_eccentricity": 0.00010424,
        "meta_inclination": 53.1565,
        "meta_ra_of_asc_node": 11.0533,
        "meta_arg_of_pericenter": 63.3627,
        "meta_mean_anomaly": 269.2408,
        "meta_ephemeris_type": 0,
        "meta_classification_type": "U",
        "meta_norad_cat_id": 66929,
        "meta_element_set_no": 999,
        "meta_rev_at_epoch": 325,
        "meta_bstar": -0.0094703448,
        "meta_mean_motion_dot": -0.01386435,
        "meta_mean_motion_ddot": 0,
        "tle_line1": "1 66929U 25286E   25354.58336806 -.01386435  00000+0 -94703-2 0  9999",
        "tle_line2": "2 66929  53.1565  11.0533 0001042  63.3627 269.2408 15.76853775  3251"
      },
      "geometry": {
        "type": "Point",
        "coordinates": [
          123.34851766972075,
          50.691790850581626
        ]
      }
    },
    {
      "type": "Feature",
      "properties": {
        "norad_id": 66930,
        "name": "STARLINK-36206",
        "group": "last-30-days",
        "lat": 50.017245170529904,
        "lon": 126.26981404036212,
        "alt_km": 334.60488175234514,
        "timestamp": "2025-12-20T20:38:43.174455+00:00",
        "meta_object_name": "STARLINK-36206",
        "meta_object_id": "2025-286F",
        "meta_epoch": "2025-12-20T14:00:03.000384",
        "meta_mean_motion": 15.7682762,
        "meta_eccentricity": 6.421e-05,
        "meta_inclination": 53.1565,
        "meta_ra_of_asc_node": 11.0491,
        "meta_arg_of_pericenter": 75.6752,
        "meta_mean_anomaly": 258.9407,
        "meta_ephemeris_type": 0,
        "meta_classification_type": "U",
        "meta_norad_cat_id": 66930,
        "meta_element_set_no": 999,
        "meta_rev_at_epoch": 325,
        "meta_bstar": -0.0094803985,
        "meta_mean_motion_dot": -0.01386083,
        "meta_mean_motion_ddot": 0,
        "tle_line1": "1 66930U 25286F   25354.58336806 -.01386083  00000+0 -94804-2 0  9992",
        "tle_line2": "2 66930  53.1565  11.0491 0000642  75.6752 258.9407 15.76827620  3250"
      },
      "geometry": {
        "type": "Point",
        "coordinates": [
          126.26981404036212,
          50.017245170529904
        ]
      }
    },
    {
      "type": "Feature",
      "properties": {
        "norad_id": 66931,
        "name": "STARLINK-36130",
        "group": "last-30-days",
        "lat": 49.242321671212004,
        "lon": 129.20887675151428,
        "alt_km": 334.73351698189526,
        "timestamp": "2025-12-20T20:38:43.174465+00:00",
        "meta_object_name": "STARLINK-36130",
        "meta_object_id": "2025-286G",
        "meta_epoch": "2025-12-20T14:00:03.000384",
        "meta_mean_motion": 15.76775994,
        "meta_eccentricity": 0.00010249,
        "meta_inclination": 53.1564,
        "meta_ra_of_asc_node": 11.0447,
        "meta_arg_of_pericenter": 69.8593,
        "meta_mean_anomaly": 266.8614,
        "meta_ephemeris_type": 0,
        "meta_classification_type": "U",
        "meta_norad_cat_id": 66931,
        "meta_element_set_no": 999,
        "meta_rev_at_epoch": 325,
        "meta_bstar": -0.009578092,
        "meta_mean_motion_dot": -0.01396106,
        "meta_mean_motion_ddot": 0,
        "tle_line1": "1 66931U 25286G   25354.58336806 -.01396106  00000+0 -95781-2 0  9995",
        "tle_line2": "2 66931  53.1564  11.0447 0001024  69.8593 266.8614 15.76775994  3258"
      },
      "geometry": {
        "type": "Point",
        "coordinates": [
          129.20887675151428,
          49.242321671212004
        ]
      }
    }
  ]
}